IRIDIUM 159             
1 43578U 18061K   25139.78155649  .00000016  00000+0 -12370-5 0  9993
2 43578  86.4006 221.0586 0002140  90.4229 269.7212 14.34217848356993
IRIDIUM 180             
1 43922U 19002A   25139.78105233  .00000056  00000+0  12964-4 0  9997
2 43922  86.3979 158.0451 0002257  93.0803 267.0651 14.34217710332642
IRIDIUM 176             
1 43923U 19002B   25139.55800905  .00000368  00000+0  54481-4 0  9997
2 43923  86.6107 158.1343 0002338 107.3264 252.8209 14.72250694341337
IRIDIUM 168             
1 43924U 19002C   25139.77470981  .00000017  00000+0 -11075-5 0  9994
2 43924  86.3988 158.1138 0002224  91.6760 268.4691 14.34217312332587
IRIDIUM 173             
1 43925U 19002D   25139.55271877  .00000030  00000+0  36301-5 0  9997
2 43925  86.3979 158.1118 0002241  95.4852 264.6600 14.34217482332530
IRIDIUM 169             
1 43926U 19002E   25139.49702829  .00000321  00000+0  98553-4 0  9996
2 43926  86.4270 189.7073 0003039 121.8427 238.3067 14.38608554333628
IRIDIUM 172             
1 43927U 19002F   25139.75568102  .00000040  00000+0  72827-5 0  9995
2 43927  86.3979 158.0338 0002006  89.0571 271.0854 14.34217328332577
IRIDIUM 175             
1 43928U 19002G   25139.41697081  .00001064  00000+0  16478-3 0  9993
2 43928  86.1479 112.3466 0003470  92.9824 267.1789 14.72249108341303
